1 39256U 13050A   22282.54634022  .00000123  00000-0  00000-0 0  9992
2 39256   1.9649  72.8421 0056067 180.0797 166.9442  1.00277046 32167